start=new Date('2022-12-18T00:00:00.000Z').valueOf();
sats=[{"OBJECT_ID":"2020-001W","INCLINATION":"53.0529","CLASSIFICATION_TYPE":"U","DECAY_DATE":null,"REV_AT_EPOCH":"16260","CENTER_NAME":"EARTH","SITE":"AFETR","EPOCH":"2022-12-17T21:27:54.097632","PERIOD":"95.592","OBJECT_TYPE":"PAYLOAD","REF_FRAME":"TEME","SEMIMAJOR_AXIS":"6925.364","BSTAR":"-0.00003247600000","LAUNCH_DATE":"2020-01-07","APOAPSIS":"548.209","MEAN_MOTION_DDOT":"0.0000000000000","NORAD_CAT_ID":"44934","MEAN_ELEMENT_THEORY":"SGP4","OBJECT_NAME":"STARLINK-1071","MEAN_MOTION_DOT":"-0.00000765","TLE_LINE1":"1 44934U 20001W   22351.89437613 -.00000765  00000-0 -32476-4 0  9997","RCS_SIZE":"LARGE","EPHEMERIS_TYPE":"0","FILE":"3707070","ELEMENT_SET_NO":"999","COUNTRY_CODE":"US","GP_ID":"220754276","MEAN_MOTION":"15.06395077","TLE_LINE2":"2 44934  53.0529 213.9619 0001416  75.3217 284.7929 15.06395077162607","ARG_OF_PERICENTER":"75.3217","MEAN_ANOMALY":"284.7929","PERIAPSIS":"546.248","RA_OF_ASC_NODE":"213.9619","TIME_SYSTEM":"UTC","ECCENTRICITY":"0.00014160"},{"MEAN_ANOMALY":"275.2760","ARG_OF_PERICENTER":"84.8387","MEAN_MOTION":"15.06391030","TLE_LINE2":"2 44937  53.0536 214.3571 0001382  84.8387 275.2760 15.06391030162596","GP_ID":"220753025","COUNTRY_CODE":"US","ELEMENT_SET_NO":"999","ECCENTRICITY":"0.00013820","TIME_SYSTEM":"UTC","RA_OF_ASC_NODE":"214.3571","PERIAPSIS":"546.284","REF_FRAME":"TEME","OBJECT_TYPE":"PAYLOAD","PERIOD":"95.593","EPOCH":"2022-12-17T19:20:31.519104","SITE":"AFETR","REV_AT_EPOCH":"16259","DECAY_DATE":null,"CENTER_NAME":"EARTH","CLASSIFICATION_TYPE":"U","INCLINATION":"53.0536","OBJECT_ID":"2020-001Z","FILE":"3707070","EPHEMERIS_TYPE":"0","RCS_SIZE":"LARGE","MEAN_MOTION_DOT":"-0.00001213","TLE_LINE1":"1 44937U 20001Z   22351.80592036 -.00001213  00000-0 -62534-4 0  9999","OBJECT_NAME":"STARLINK-1079","MEAN_ELEMENT_THEORY":"SGP4","NORAD_CAT_ID":"44937","MEAN_MOTION_DDOT":"0.0000000000000","APOAPSIS":"548.198","BSTAR":"-0.00006253400000","LAUNCH_DATE":"2020-01-07","SEMIMAJOR_AXIS":"6925.376"},{"MEAN_ANOMALY":"279.2629","ARG_OF_PERICENTER":"80.8515","TLE_LINE2":"2 44938  53.0534 214.2002 0001374  80.8515 279.2629 15.06408488162597","MEAN_MOTION":"15.06408488","COUNTRY_CODE":"US","GP_ID":"220753274","ELEMENT_SET_NO":"999","ECCENTRICITY":"0.00013740","TIME_SYSTEM":"UTC","PERIAPSIS":"546.236","RA_OF_ASC_NODE":"214.2002","EPOCH":"2022-12-17T20:08:17.185920","OBJECT_TYPE":"PAYLOAD","REF_FRAME":"TEME","PERIOD":"95.592","DECAY_DATE":null,"REV_AT_EPOCH":"16259","CLASSIFICATION_TYPE":"U","CENTER_NAME":"EARTH","SITE":"AFETR","OBJECT_ID":"2020-001AA","INCLINATION":"53.0534","FILE":"3707070","EPHEMERIS_TYPE":"0","OBJECT_NAME":"STARLINK-1082","RCS_SIZE":"LARGE","TLE_LINE1":"1 44938U 20001AA  22351.83908780 -.00000035  00000-0  16570-4 0  9999","MEAN_MOTION_DOT":"-0.00000035","NORAD_CAT_ID":"44938","MEAN_MOTION_DDOT":"0.0000000000000","MEAN_ELEMENT_THEORY":"SGP4","BSTAR":"0.00001657000000","LAUNCH_DATE":"2020-01-07","SEMIMAJOR_AXIS":"6925.323","APOAPSIS":"548.139"},{"GP_ID":"220754525","COUNTRY_CODE":"US","ELEMENT_SET_NO":"999","MEAN_ANOMALY":"272.6865","TLE_LINE2":"2 44939  53.0550 214.4694 0001539  87.4300 272.6865 15.06398200162581","MEAN_MOTION":"15.06398200","ARG_OF_PERICENTER":"87.4300","TIME_SYSTEM":"UTC","RA_OF_ASC_NODE":"214.4694","PERIAPSIS":"546.153","ECCENTRICITY":"0.00015390","SITE":"AFETR","DECAY_DATE":null,"CENTER_NAME":"EARTH","REV_AT_EPOCH":"16258","CLASSIFICATION_TYPE":"U","INCLINATION":"53.0550","OBJECT_ID":"2020-001AB","PERIOD":"95.592","OBJECT_TYPE":"PAYLOAD","REF_FRAME":"TEME","EPOCH":"2022-12-17T18:43:21.516960","MEAN_ELEMENT_THEORY":"SGP4","MEAN_MOTION_DDOT":"0.0000000000000","NORAD_CAT_ID":"44939","APOAPSIS":"548.285","SEMIMAJOR_AXIS":"6925.354","LAUNCH_DATE":"2020-01-07","BSTAR":"-0.00000623580000","EPHEMERIS_TYPE":"0","FILE":"3707070","TLE_LINE1":"1 44939U 20001AB  22351.78011015 -.00000374  00000-0 -62358-5 0  9993","MEAN_MOTION_DOT":"-0.00000374","RCS_SIZE":"LARGE","OBJECT_NAME":"STARLINK-1083"},{"ELEMENT_SET_NO":"999","COUNTRY_CODE":"US","GP_ID":"220754776","TLE_LINE2":"2 44940  53.0543 214.4153 0001679  58.6974 301.4179 15.06396803162583","MEAN_MOTION":"15.06396803","ARG_OF_PERICENTER":"58.6974","MEAN_ANOMALY":"301.4179","PERIAPSIS":"546.061","RA_OF_ASC_NODE":"214.4153","TIME_SYSTEM":"UTC","ECCENTRICITY":"0.00016790","OBJECT_ID":"2020-001AC","INCLINATION":"53.0543","DECAY_DATE":null,"CLASSIFICATION_TYPE":"U","REV_AT_EPOCH":"16258","CENTER_NAME":"EARTH","SITE":"AFETR","EPOCH":"2022-12-17T18:59:16.922976","PERIOD":"95.592","OBJECT_TYPE":"PAYLOAD","REF_FRAME":"TEME","SEMIMAJOR_AXIS":"6925.358","LAUNCH_DATE":"2020-01-07","BSTAR":"-0.00003236600000","APOAPSIS":"548.386","MEAN_MOTION_DDOT":"0.0000000000000","NORAD_CAT_ID":"44940","MEAN_ELEMENT_THEORY":"SGP4","OBJECT_NAME":"STARLINK-1091","MEAN_MOTION_DOT":"-0.00000764","TLE_LINE1":"1 44940U 20001AC  22351.79116809 -.00000764  00000-0 -32366-4 0  9991","RCS_SIZE":"LARGE","EPHEMERIS_TYPE":"0","FILE":"3707070"},{"APOAPSIS":"548.191","SEMIMAJOR_AXIS":"6925.367","LAUNCH_DATE":"2020-01-07","BSTAR":"0.00003365800000","MEAN_ELEMENT_THEORY":"SGP4","MEAN_MOTION_DDOT":"0.0000000000000","NORAD_CAT_ID":"44941","MEAN_MOTION_DOT":"0.00000220","TLE_LINE1":"1 44941U 20001AD  22351.87963165  .00000220  00000-0  33658-4 0  9996","RCS_SIZE":"LARGE","OBJECT_NAME":"STARLINK-1094","EPHEMERIS_TYPE":"0","FILE":"3707070","INCLINATION":"53.0535","OBJECT_ID":"2020-001AD","SITE":"AFETR","DECAY_DATE":null,"REV_AT_EPOCH":"16260","CENTER_NAME":"EARTH","CLASSIFICATION_TYPE":"U","PERIOD":"95.593","REF_FRAME":"TEME","OBJECT_TYPE":"PAYLOAD","EPOCH":"2022-12-17T21:06:40.174560","RA_OF_ASC_NODE":"214.0221","PERIAPSIS":"546.273","TIME_SYSTEM":"UTC","ECCENTRICITY":"0.00013850","ELEMENT_SET_NO":"999","GP_ID":"220753524","COUNTRY_CODE":"US","MEAN_MOTION":"15.06394010","TLE_LINE2":"2 44941  53.0535 214.0221 0001385  70.4619 289.6520 15.06394010162607","ARG_OF_PERICENTER":"70.4619","MEAN_ANOMALY":"289.6520"},{"ARG_OF_PERICENTER":"108.6215","MEAN_MOTION":"15.12902531","TLE_LINE2":"2 44942  53.0549 209.4242 0003717 108.6215 251.5180 15.12902531162678","MEAN_ANOMALY":"251.5180","ELEMENT_SET_NO":"999","GP_ID":"220753774","COUNTRY_CODE":"US","ECCENTRICITY":"0.00037170","RA_OF_ASC_NODE":"209.4242","PERIAPSIS":"524.789","TIME_SYSTEM":"UTC","OBJECT_TYPE":"PAYLOAD","REF_FRAME":"TEME","PERIOD":"95.181","EPOCH":"2022-12-17T21:34:47.007552","INCLINATION":"53.0549","OBJECT_ID":"2020-001AE","SITE":"AFETR","REV_AT_EPOCH":"16267","DECAY_DATE":null,"CLASSIFICATION_TYPE":"U","CENTER_NAME":"EARTH","RCS_SIZE":"LARGE","MEAN_MOTION_DOT":"0.00012865","TLE_LINE1":"1 44942U 20001AE  22351.89915518  .00012865  00000-0  73778-3 0  9992","OBJECT_NAME":"STARLINK-1096","FILE":"3707070","EPHEMERIS_TYPE":"0","APOAPSIS":"529.922","BSTAR":"0.00073778000000","LAUNCH_DATE":"2020-01-07","SEMIMAJOR_AXIS":"6905.491","MEAN_ELEMENT_THEORY":"SGP4","NORAD_CAT_ID":"44942","MEAN_MOTION_DDOT":"0.0000000000000"},{"OBJECT_ID":"2020-001AF","INCLINATION":"53.0539","DECAY_DATE":null,"CENTER_NAME":"EARTH","REV_AT_EPOCH":"16258","CLASSIFICATION_TYPE":"U","SITE":"AFETR","EPOCH":"2022-12-17T18:38:03.627168","REF_FRAME":"TEME","OBJECT_TYPE":"PAYLOAD","PERIOD":"95.593","LAUNCH_DATE":"2020-01-07","BSTAR":"-0.00005817900000","SEMIMAJOR_AXIS":"6925.370","APOAPSIS":"548.171","NORAD_CAT_ID":"44943","MEAN_MOTION_DDOT":"0.0000000000000","MEAN_ELEMENT_THEORY":"SGP4","OBJECT_NAME":"STARLINK-1100","RCS_SIZE":"LARGE","MEAN_MOTION_DOT":"-0.00001148","TLE_LINE1":"1 44943U 20001AF  22351.77643087 -.00001148  00000-0 -58179-4 0  9992","FILE":"3707070","EPHEMERIS_TYPE":"0","ELEMENT_SET_NO":"999","COUNTRY_CODE":"US","GP_ID":"220754026","ARG_OF_PERICENTER":"72.8963","TLE_LINE2":"2 44943  53.0539 214.4892 0001352  72.8963 287.2174 15.06393148162580","MEAN_MOTION":"15.06393148","MEAN_ANOMALY":"287.2174","PERIAPSIS":"546.298","RA_OF_ASC_NODE":"214.4892","TIME_SYSTEM":"UTC","ECCENTRICITY":"0.00013520"},{"ELEMENT_SET_NO":"999","GP_ID":"220754277","COUNTRY_CODE":"US","ARG_OF_PERICENTER":"78.9029","TLE_LINE2":"2 44944  53.0546 213.9683 0001571  78.9029 281.2137 15.06395420162605","MEAN_MOTION":"15.06395420","MEAN_ANOMALY":"281.2137","RA_OF_ASC_NODE":"213.9683","PERIAPSIS":"546.140","TIME_SYSTEM":"UTC","ECCENTRICITY":"0.00015710","INCLINATION":"53.0546","OBJECT_ID":"2020-001AG","SITE":"AFETR","DECAY_DATE":null,"REV_AT_EPOCH":"16260","CLASSIFICATION_TYPE":"U","CENTER_NAME":"EARTH","OBJECT_TYPE":"PAYLOAD","REF_FRAME":"TEME","PERIOD":"95.592","EPOCH":"2022-12-17T21:22:35.531328","APOAPSIS":"548.316","BSTAR":"0.00000073920000","LAUNCH_DATE":"2020-01-07","SEMIMAJOR_AXIS":"6925.363","MEAN_ELEMENT_THEORY":"SGP4","NORAD_CAT_ID":"44944","MEAN_MOTION_DDOT":"0.0000000000000","RCS_SIZE":"LARGE","TLE_LINE1":"1 44944U 20001AG  22351.89068902 -.00000271  00000-0  73920-6 0  9991","MEAN_MOTION_DOT":"-0.00000271","OBJECT_NAME":"STARLINK-1108","FILE":"3707070","EPHEMERIS_TYPE":"0"},{"MEAN_ANOMALY":"284.4840","MEAN_MOTION":"15.06387164","TLE_LINE2":"2 44945  53.0551 214.4351 0001322  75.6295 284.4840 15.06387164162582","ARG_OF_PERICENTER":"75.6295","COUNTRY_CODE":"US","GP_ID":"220753026","ELEMENT_SET_NO":"999","ECCENTRICITY":"0.00013220","TIME_SYSTEM":"UTC","PERIAPSIS":"546.337","RA_OF_ASC_NODE":"214.4351","EPOCH":"2022-12-17T18:53:59.360640","PERIOD":"95.593","OBJECT_TYPE":"PAYLOAD","REF_FRAME":"TEME","DECAY_DATE":null,"CENTER_NAME":"EARTH","REV_AT_EPOCH":"16258","CLASSIFICATION_TYPE":"U","SITE":"AFETR","OBJECT_ID":"2020-001AH","INCLINATION":"53.0551","EPHEMERIS_TYPE":"0","FILE":"3707070","OBJECT_NAME":"STARLINK-1109","TLE_LINE1":"1 44945U 20001AH  22351.78749260 -.00000759  00000-0 -32052-4 0  9994","MEAN_MOTION_DOT":"-0.00000759","RCS_SIZE":"LARGE","MEAN_MOTION_DDOT":"0.0000000000000","NORAD_CAT_ID":"44945","MEAN_ELEMENT_THEORY":"SGP4","SEMIMAJOR_AXIS":"6925.388","BSTAR":"-0.00003205200000","LAUNCH_DATE":"2020-01-07","APOAPSIS":"548.168"}];
